CCSDS_OMM_VERS = 2.0
CREATION_DATE  = 
ORIGINATOR     = 

OBJECT_NAME    = SITRO-AIS-63
OBJECT_ID      = 2025-313AY
CENTER_NAME    = EARTH
REF_FRAME      = TEME
TIME_SYSTEM    = UTC
MEAN_ELEMENT_THEORY = SGP/SGP4

EPOCH          = 2026-01-24T10:39:05.987520
MEAN_MOTION    = 15.21876562
ECCENTRICITY   = .0010372
INCLINATION    = 97.4094
RA_OF_ASC_NODE = 101.5010
ARG_OF_PERICENTER = 136.8970
MEAN_ANOMALY   = 223.3080

EPHEMERIS_TYPE = 0
CLASSIFICATION_TYPE = U
NORAD_CAT_ID   = 67294
ELEMENT_SET_NO = 999
REV_AT_EPOCH   = 409
BSTAR          = .74619E-3
MEAN_MOTION_DOT = .16955E-3
MEAN_MOTION_DDOT = 0

CCSDS_OMM_VERS = 2.0
CREATION_DATE  = 
ORIGINATOR     = 

OBJECT_NAME    = ZORKIY-2M-5
OBJECT_ID      = 2025-313AZ
CENTER_NAME    = EARTH
REF_FRAME      = TEME
TIME_SYSTEM    = UTC
MEAN_ELEMENT_THEORY = SGP/SGP4

EPOCH          = 2026-01-24T10:39:35.663328
MEAN_MOTION    = 15.21798470
ECCENTRICITY   = .0011864
INCLINATION    = 97.4086
RA_OF_ASC_NODE = 101.4957
ARG_OF_PERICENTER = 128.0537
MEAN_ANOMALY   = 232.1771

EPHEMERIS_TYPE = 0
CLASSIFICATION_TYPE = U
NORAD_CAT_ID   = 67295
ELEMENT_SET_NO = 999
REV_AT_EPOCH   = 409
BSTAR          = .60138E-3
MEAN_MOTION_DOT = .1362E-3
MEAN_MOTION_DDOT = 0

CCSDS_OMM_VERS = 2.0
CREATION_DATE  = 
ORIGINATOR     = 

OBJECT_NAME    = SITRO-AIS-62
OBJECT_ID      = 2025-313BA
CENTER_NAME    = EARTH
REF_FRAME      = TEME
TIME_SYSTEM    = UTC
MEAN_ELEMENT_THEORY = SGP/SGP4

EPOCH          = 2026-01-24T10:37:49.557216
MEAN_MOTION    = 15.21934449
ECCENTRICITY   = .0010147
INCLINATION    = 97.4098
RA_OF_ASC_NODE = 101.5038
ARG_OF_PERICENTER = 137.3678
MEAN_ANOMALY   = 222.8347

EPHEMERIS_TYPE = 0
CLASSIFICATION_TYPE = U
NORAD_CAT_ID   = 67296
ELEMENT_SET_NO = 999
REV_AT_EPOCH   = 409
BSTAR          = .81943E-3
MEAN_MOTION_DOT = .18661E-3
MEAN_MOTION_DDOT = 0

CCSDS_OMM_VERS = 2.0
CREATION_DATE  = 
ORIGINATOR     = 

OBJECT_NAME    = SITRO-AIS-61
OBJECT_ID      = 2025-313BB
CENTER_NAME    = EARTH
REF_FRAME      = TEME
TIME_SYSTEM    = UTC
MEAN_ELEMENT_THEORY = SGP/SGP4

EPOCH          = 2026-01-24T10:36:20.298240
MEAN_MOTION    = 15.21993145
ECCENTRICITY   = .0009837
INCLINATION    = 97.4099
RA_OF_ASC_NODE = 101.5052
ARG_OF_PERICENTER = 139.2184
MEAN_ANOMALY   = 220.9790

EPHEMERIS_TYPE = 0
CLASSIFICATION_TYPE = U
NORAD_CAT_ID   = 67297
ELEMENT_SET_NO = 999
REV_AT_EPOCH   = 409
BSTAR          = .80683E-3
MEAN_MOTION_DOT = .18402E-3
MEAN_MOTION_DDOT = 0

CCSDS_OMM_VERS = 2.0
CREATION_DATE  = 
ORIGINATOR     = 

OBJECT_NAME    = TIANHUI 7
OBJECT_ID      = 2025-314A
CENTER_NAME    = EARTH
REF_FRAME      = TEME
TIME_SYSTEM    = UTC
MEAN_ELEMENT_THEORY = SGP/SGP4

EPOCH          = 2026-01-20T22:20:42.562752
MEAN_MOTION    = 15.25587940
ECCENTRICITY   = .00015619
INCLINATION    = 97.4187
RA_OF_ASC_NODE = 97.9671
ARG_OF_PERICENTER = 100.1824
MEAN_ANOMALY   = 259.9591

EPHEMERIS_TYPE = 0
CLASSIFICATION_TYPE = U
NORAD_CAT_ID   = 67300
ELEMENT_SET_NO = 999
REV_AT_EPOCH   = 333
BSTAR          = .19816833E-3
MEAN_MOTION_DOT = .496E-4
MEAN_MOTION_DDOT = 0

CCSDS_OMM_VERS = 2.0
CREATION_DATE  = 
ORIGINATOR     = 

OBJECT_NAME    = CZ-4B R/B
OBJECT_ID      = 2025-314B
CENTER_NAME    = EARTH
REF_FRAME      = TEME
TIME_SYSTEM    = UTC
MEAN_ELEMENT_THEORY = SGP/SGP4

EPOCH          = 2026-01-24T05:21:28.432800
MEAN_MOTION    = 15.71846848
ECCENTRICITY   = .0132522
INCLINATION    = 97.3705
RA_OF_ASC_NODE = 102.7386
ARG_OF_PERICENTER = 284.0158
MEAN_ANOMALY   = 74.6402

EPHEMERIS_TYPE = 0
CLASSIFICATION_TYPE = U
NORAD_CAT_ID   = 67301
ELEMENT_SET_NO = 999
REV_AT_EPOCH   = 389
BSTAR          = .66158E-3
MEAN_MOTION_DOT = .146303E-2
MEAN_MOTION_DDOT = .85338E-5

CCSDS_OMM_VERS = 2.0
CREATION_DATE  = 
ORIGINATOR     = 

OBJECT_NAME    = SHIJIAN-29A (SJ-29A)
OBJECT_ID      = 2025-315A
CENTER_NAME    = EARTH
REF_FRAME      = TEME
TIME_SYSTEM    = UTC
MEAN_ELEMENT_THEORY = SGP/SGP4

EPOCH          = 2026-01-24T18:05:24.996192
MEAN_MOTION    = 1.00270876
ECCENTRICITY   = .0001402
INCLINATION    = 3.0333
RA_OF_ASC_NODE = 98.9147
ARG_OF_PERICENTER = 297.1080
MEAN_ANOMALY   = 72.4153

EPHEMERIS_TYPE = 0
CLASSIFICATION_TYPE = U
NORAD_CAT_ID   = 67302
ELEMENT_SET_NO = 999
REV_AT_EPOCH   = 18
BSTAR          = 0
MEAN_MOTION_DOT = -.52E-6
MEAN_MOTION_DDOT = 0

CCSDS_OMM_VERS = 2.0
CREATION_DATE  = 
ORIGINATOR     = 

OBJECT_NAME    = CZ-7A R/B
OBJECT_ID      = 2025-315B
CENTER_NAME    = EARTH
REF_FRAME      = TEME
TIME_SYSTEM    = UTC
MEAN_ELEMENT_THEORY = SGP/SGP4

EPOCH          = 2026-01-23T14:26:33.849024
MEAN_MOTION    = 2.45303663
ECCENTRICITY   = .71796237
INCLINATION    = 19.5956
RA_OF_ASC_NODE = 90.5585
ARG_OF_PERICENTER = 197.2625
MEAN_ANOMALY   = 111.9631

EPHEMERIS_TYPE = 0
CLASSIFICATION_TYPE = U
NORAD_CAT_ID   = 67303
ELEMENT_SET_NO = 999
REV_AT_EPOCH   = 58
BSTAR          = .23635903E-2
MEAN_MOTION_DOT = .78192E-3
MEAN_MOTION_DDOT = -.539116E-6

CCSDS_OMM_VERS = 2.0
CREATION_DATE  = 
ORIGINATOR     = 

OBJECT_NAME    = CSG-3
OBJECT_ID      = 2026-001A
CENTER_NAME    = EARTH
REF_FRAME      = TEME
TIME_SYSTEM    = UTC
MEAN_ELEMENT_THEORY = SGP/SGP4

EPOCH          = 2026-01-24T12:55:05.688192
MEAN_MOTION    = 14.82520569
ECCENTRICITY   = .0001598
INCLINATION    = 97.8452
RA_OF_ASC_NODE = 210.2482
ARG_OF_PERICENTER = 85.4677
MEAN_ANOMALY   = 274.6719

EPHEMERIS_TYPE = 0
CLASSIFICATION_TYPE = U
NORAD_CAT_ID   = 67304
ELEMENT_SET_NO = 999
REV_AT_EPOCH   = 318
BSTAR          = .10902E-3
MEAN_MOTION_DOT = .824E-5
MEAN_MOTION_DDOT = 0

CCSDS_OMM_VERS = 2.0
CREATION_DATE  = 
ORIGINATOR     = 

OBJECT_NAME    = STARLINK-36490
OBJECT_ID      = 2026-002A
CENTER_NAME    = EARTH
REF_FRAME      = TEME
TIME_SYSTEM    = UTC
MEAN_ELEMENT_THEORY = SGP/SGP4

EPOCH          = 2026-01-24T12:00:00.998784
MEAN_MOTION    = 15.71353417
ECCENTRICITY   = .0001665
INCLINATION    = 42.9990
RA_OF_ASC_NODE = 217.9424
ARG_OF_PERICENTER = 270.4308
MEAN_ANOMALY   = 134.9001

EPHEMERIS_TYPE = 0
CLASSIFICATION_TYPE = U
NORAD_CAT_ID   = 67305
ELEMENT_SET_NO = 999
REV_AT_EPOCH   = 437
BSTAR          = -.17217E-1
MEAN_MOTION_DOT = -.1992737E-1
MEAN_MOTION_DDOT = 0

CCSDS_OMM_VERS = 2.0
CREATION_DATE  = 
ORIGINATOR     = 

OBJECT_NAME    = STARLINK-36488
OBJECT_ID      = 2026-002B
CENTER_NAME    = EARTH
REF_FRAME      = TEME
TIME_SYSTEM    = UTC
MEAN_ELEMENT_THEORY = SGP/SGP4

EPOCH          = 2026-01-24T12:00:00.998784
MEAN_MOTION    = 15.71352017
ECCENTRICITY   = .0001625
INCLINATION    = 42.9995
RA_OF_ASC_NODE = 217.9382
ARG_OF_PERICENTER = 273.0908
MEAN_ANOMALY   = 134.1565

EPHEMERIS_TYPE = 0
CLASSIFICATION_TYPE = U
NORAD_CAT_ID   = 67306
ELEMENT_SET_NO = 999
REV_AT_EPOCH   = 431
BSTAR          = -.17188E-1
MEAN_MOTION_DOT = -.1989559E-1
MEAN_MOTION_DDOT = 0

CCSDS_OMM_VERS = 2.0
CREATION_DATE  = 
ORIGINATOR     = 

OBJECT_NAME    = STARLINK-36481
OBJECT_ID      = 2026-002C
CENTER_NAME    = EARTH
REF_FRAME      = TEME
TIME_SYSTEM    = UTC
MEAN_ELEMENT_THEORY = SGP/SGP4

EPOCH          = 2026-01-23T22:03:56.206656
MEAN_MOTION    = 15.74487746
ECCENTRICITY   = .0001818
INCLINATION    = 42.9990
RA_OF_ASC_NODE = 221.4382
ARG_OF_PERICENTER = 270.8171
MEAN_ANOMALY   = 89.2490

EPHEMERIS_TYPE = 0
CLASSIFICATION_TYPE = U
NORAD_CAT_ID   = 67307
ELEMENT_SET_NO = 999
REV_AT_EPOCH   = 419
BSTAR          = -.25833E-2
MEAN_MOTION_DOT = -.371319E-2
MEAN_MOTION_DDOT = 0

