SITRO-AIS-63            
1 67294U 25313AY  26024.44381930  .00016955  00000+0  74619-3 0  9993
2 67294  97.4094 101.5010 0010372 136.8970 223.3080 15.21876562  4092
ZORKIY-2M-5             
1 67295U 25313AZ  26024.44416277  .00013620  00000+0  60138-3 0  9994
2 67295  97.4086 101.4957 0011864 128.0537 232.1771 15.21798470  4098
SITRO-AIS-62            
1 67296U 25313BA  26024.44293469  .00018661  00000+0  81943-3 0  9998
2 67296  97.4098 101.5038 0010147 137.3678 222.8347 15.21934449  4098
SITRO-AIS-61            
1 67297U 25313BB  26024.44190160  .00018402  00000+0  80683-3 0  9996
2 67297  97.4099 101.5052 0009837 139.2184 220.9790 15.21993145  4092
TIANHUI 7               
1 67300U 25314A   26020.93104818  .00004960  00000+0  19817-3 0  9992
2 67300  97.4187  97.9671 0001561 100.1824 259.9591 15.25587940  3337
CZ-4B R/B               
1 67301U 25314B   26024.22324575  .00146303  85338-5  66158-3 0  9994
2 67301  97.3705 102.7386 0132522 284.0158  74.6402 15.71846848  3895
SHIJIAN-29A (SJ-29A)    
1 67302U 25315A   26024.75376153 -.00000052  00000+0  00000+0 0  9991
2 67302   3.0333  98.9147 0001402 297.1080  72.4153  1.00270876   186
CZ-7A R/B               
1 67303U 25315B   26023.60178066  .00078192 -53912-6  23636-2 0  9998
2 67303  19.5956  90.5585 7179623 197.2625 111.9631  2.45303663   582
CSG-3                   
1 67304U 26001A   26024.53826028  .00000824  00000+0  10902-3 0  9995
2 67304  97.8452 210.2482 0001598  85.4677 274.6719 14.82520569  3186
STARLINK-36490          
1 67305U 26002A   26024.50001156 -.01992737  00000+0 -17217-1 0  9991
2 67305  42.9990 217.9424 0001665 270.4308 134.9001 15.71353417  4376
STARLINK-36488          
1 67306U 26002B   26024.50001156 -.01989559  00000+0 -17188-1 0  9997
2 67306  42.9995 217.9382 0001625 273.0908 134.1565 15.71352017  4312
STARLINK-36481          
1 67307U 26002C   26023.91940054 -.00371319  00000+0 -25833-2 0  9996
2 67307  42.9990 221.4382 0001818 270.8171  89.2490 15.74487746  4193
